[
    {
        "Altitude(m)": 554113.7407320781,
        "Argument of Periapsis(deg)": 0.026491964442854003,
        "Eccentricity": 0.0,
        "Inclination(deg)": 53.0,
        "Latitude(deg)": 1.0659346304536093,
        "Longitude(deg)": 86.01707774058168,
        "Mean Anomaly(deg)": 178.54827147031034,
        "RAAN(deg)": 9.960573474112067,
        "Satellite Name": "Starlink Shell 1 52",
        "Satellite Number": 52,
        "Semi-Major Axis(m)": 6931778.249405717,
        "Time(s)": 760
    },
    {
        "Altitude(m)": 554174.5893302801,
        "Argument of Periapsis(deg)": 0.02684054292236524,
        "Eccentricity": 0.0,
        "Inclination(deg)": 53.0,
        "Latitude(deg)": 0.5620102629204343,
        "Longitude(deg)": 86.3525341930714,
        "Mean Anomaly(deg)": 179.17510267386706,
        "RAAN(deg)": 9.960054704034594,
        "Satellite Name": "Starlink Shell 1 52",
        "Satellite Number": 52,
        "Semi-Major Axis(m)": 6931778.249405717,
        "Time(s)": 770
    },
    {
        "Altitude(m)": 554238.2421656282,
        "Argument of Periapsis(deg)": 0.027189121401876473,
        "Eccentricity": 0.0,
        "Inclination(deg)": 53.0,
        "Latitude(deg)": 0.05806992620394987,
        "Longitude(deg)": 86.68791900672879,
        "Mean Anomaly(deg)": 179.80193387742378,
        "RAAN(deg)": 9.959535933957122,
        "Satellite Name": "Starlink Shell 1 52",
        "Satellite Number": 52,
        "Semi-Major Axis(m)": 6931778.249405717,
        "Time(s)": 780
    },
    {
        "Altitude(m)": 554304.6920798953,
        "Argument of Periapsis(deg)": 0.02753769988138771,
        "Eccentricity": 0.0,
        "Inclination(deg)": 53.0,
        "Latitude(deg)": -0.4458634827716722,
        "Longitude(deg)": 87.02329021741292,
        "Mean Anomaly(deg)": 180.4287650809805,
        "RAAN(deg)": 9.959017163879649,
        "Satellite Name": "Starlink Shell 1 52",
        "Satellite Number": 52,
        "Semi-Major Axis(m)": 6931778.249405717,
        "Time(s)": 790
    },
    {
        "Altitude(m)": 554373.9305597586,
        "Argument of Periapsis(deg)": 0.02788627836089895,
        "Eccentricity": 0.0,
        "Inclination(deg)": 53.0,
        "Latitude(deg)": -0.9497670722144018,
        "Longitude(deg)": 87.35870534810856,
        "Mean Anomaly(deg)": 181.05559628453722,
        "RAAN(deg)": 9.958498393802177,
        "Satellite Name": "Starlink Shell 1 52",
        "Satellite Number": 52,
        "Semi-Major Axis(m)": 6931778.249405717,
        "Time(s)": 800
    },
    {
        "Altitude(m)": 554445.9477382817,
        "Argument of Periapsis(deg)": 0.02823485684041019,
        "Eccentricity": 0.0,
        "Inclination(deg)": 53.0,
        "Latitude(deg)": -1.4536179437873262,
        "Longitude(deg)": 87.69422193843961,
        "Mean Anomaly(deg)": 181.6824274880939,
        "RAAN(deg)": 9.957979623724702,
        "Satellite Name": "Starlink Shell 1 52",
        "Satellite Number": 52,
        "Semi-Major Axis(m)": 6931778.249405717,
        "Time(s)": 810
    },
    {
        "Altitude(m)": 554520.7323970769,
        "Argument of Periapsis(deg)": 0.028583435319921423,
        "Eccentricity": 0.0,
        "Inclination(deg)": 53.0,
        "Latitude(deg)": -1.9573931809247047,
        "Longitude(deg)": 88.02989807418379,
        "Mean Anomaly(deg)": 182.30925869165063,
        "RAAN(deg)": 9.95746085364723,
        "Satellite Name": "Starlink Shell 1 52",
        "Satellite Number": 52,
        "Semi-Major Axis(m)": 6931778.249405717,
        "Time(s)": 820
    },
    {
        "Altitude(m)": 554598.2719691673,
        "Argument of Periapsis(deg)": 0.028932013799432665,
        "Eccentricity": 0.0,
        "Inclination(deg)": 53.0,
        "Latitude(deg)": -2.4610698371288198,
        "Longitude(deg)": 88.36579140392298,
        "Mean Anomaly(deg)": 182.93608989520737,
        "RAAN(deg)": 9.956942083569757,
        "Satellite Name": "Starlink Shell 1 52",
        "Satellite Number": 52,
        "Semi-Major Axis(m)": 6931778.249405717,
        "Time(s)": 830
    },
    {
        "Altitude(m)": 554678.5525424711,
        "Argument of Periapsis(deg)": 0.029280592278943897,
        "Eccentricity": 0.0,
        "Inclination(deg)": 53.0,
        "Latitude(deg)": -2.964624924236718,
        "Longitude(deg)": 88.70195966858404,
        "Mean Anomaly(deg)": 183.56292109876406,
        "RAAN(deg)": 9.956423313492284,
        "Satellite Name": "Starlink Shell 1 52",
        "Satellite Number": 52,
        "Semi-Major Axis(m)": 6931778.249405717,
        "Time(s)": 840
    },
    {
        "Altitude(m)": 554761.5588640276,
        "Argument of Periapsis(deg)": 0.029629170758455132,
        "Eccentricity": 0.0,
        "Inclination(deg)": 53.0,
        "Latitude(deg)": -3.468035400645786,
        "Longitude(deg)": 89.03846123100313,
        "Mean Anomaly(deg)": 184.18975230232078,
        "RAAN(deg)": 9.955904543414812,
        "Satellite Name": "Starlink Shell 1 52",
        "Satellite Number": 52,
        "Semi-Major Axis(m)": 6931778.249405717,
        "Time(s)": 850
    },
    {
        "Altitude(m)": 554847.274344838,
        "Argument of Periapsis(deg)": 0.02997774923796637,
        "Eccentricity": 0.0,
        "Inclination(deg)": 53.0,
        "Latitude(deg)": -3.97127815948652,
        "Longitude(deg)": 89.37535392455142,
        "Mean Anomaly(deg)": 184.8165835058775,
        "RAAN(deg)": 9.955385773337339,
        "Satellite Name": "Starlink Shell 1 52",
        "Satellite Number": 52,
        "Semi-Major Axis(m)": 6931778.249405717,
        "Time(s)": 860
    },
    {
        "Altitude(m)": 554935.6810654104,
        "Argument of Periapsis(deg)": 0.030326327717477602,
        "Eccentricity": 0.0,
        "Inclination(deg)": 53.0,
        "Latitude(deg)": -4.474330016731311,
        "Longitude(deg)": 89.71269642325457,
        "Mean Anomaly(deg)": 185.4434147094342,
        "RAAN(deg)": 9.954867003259865,
        "Satellite Name": "Starlink Shell 1 52",
        "Satellite Number": 52,
        "Semi-Major Axis(m)": 6931778.249405717,
        "Time(s)": 870
    },
    {
        "Altitude(m)": 555026.7597819549,
        "Argument of Periapsis(deg)": 0.030674906196988847,
        "Eccentricity": 0.0,
        "Inclination(deg)": 53.0,
        "Latitude(deg)": -4.977167699228128,
        "Longitude(deg)": 90.0505470905015,
        "Mean Anomaly(deg)": 186.07024591299094,
        "RAAN(deg)": 9.954348233182394,
        "Satellite Name": "Starlink Shell 1 52",
        "Satellite Number": 52,
        "Semi-Major Axis(m)": 6931778.249405717,
        "Time(s)": 880
    },
    {
        "Altitude(m)": 555120.489933232,
        "Argument of Periapsis(deg)": 0.031023484676500086,
        "Eccentricity": 0.0,
        "Inclination(deg)": 53.0,
        "Latitude(deg)": -5.479767832647404,
        "Longitude(deg)": 90.38896450877505,
        "Mean Anomaly(deg)": 186.69707711654766,
        "RAAN(deg)": 9.95382946310492,
        "Satellite Name": "Starlink Shell 1 52",
        "Satellite Number": 52,
        "Semi-Major Axis(m)": 6931778.249405717,
        "Time(s)": 890
    },
    {
        "Altitude(m)": 555216.8496480907,
        "Argument of Periapsis(deg)": 0.03137206315601132,
        "Eccentricity": 0.0,
        "Inclination(deg)": 53.0,
        "Latitude(deg)": -5.982106929330714,
        "Longitude(deg)": 90.7280080094402,
        "Mean Anomaly(deg)": 187.32390832010438,
        "RAAN(deg)": 9.953310693027449,
        "Satellite Name": "Starlink Shell 1 52",
        "Satellite Number": 52,
        "Semi-Major Axis(m)": 6931778.249405717,
        "Time(s)": 900
    },
    {
        "Altitude(m)": 555315.8157536259,
        "Argument of Periapsis(deg)": 0.03172064163552255,
        "Eccentricity": 0.0,
        "Inclination(deg)": 53.0,
        "Latitude(deg)": -6.484161376030156,
        "Longitude(deg)": 91.06773668972144,
        "Mean Anomaly(deg)": 187.95073952366107,
        "RAAN(deg)": 9.952791922949976,
        "Satellite Name": "Starlink Shell 1 52",
        "Satellite Number": 52,
        "Semi-Major Axis(m)": 6931778.249405717,
        "Time(s)": 910
    },
    {
        "Altitude(m)": 555417.3637840289,
        "Argument of Periapsis(deg)": 0.0320692201150338,
        "Eccentricity": 0.0,
        "Inclination(deg)": 53.0,
        "Latitude(deg)": -6.985907421526532,
        "Longitude(deg)": 91.40820994262207,
        "Mean Anomaly(deg)": 188.5775707272178,
        "RAAN(deg)": 9.952273152872504,
        "Satellite Name": "Starlink Shell 1 52",
        "Satellite Number": 52,
        "Semi-Major Axis(m)": 6931778.249405717,
        "Time(s)": 920
    },
    {
        "Altitude(m)": 555521.4679900187,
        "Argument of Periapsis(deg)": 0.032417798594545036,
        "Eccentricity": 0.0,
        "Inclination(deg)": 53.0,
        "Latitude(deg)": -7.487321164114814,
        "Longitude(deg)": 91.74948798691561,
        "Mean Anomaly(deg)": 189.20440193077448,
        "RAAN(deg)": 9.951754382795029,
        "Satellite Name": "Starlink Shell 1 52",
        "Satellite Number": 52,
        "Semi-Major Axis(m)": 6931778.249405717,
        "Time(s)": 930
    },
    {
        "Altitude(m)": 555628.1013489923,
        "Argument of Periapsis(deg)": 0.03276637707405627,
        "Eccentricity": 0.0,
        "Inclination(deg)": 53.0,
        "Latitude(deg)": -7.988378538945597,
        "Longitude(deg)": 92.09163088434016,
        "Mean Anomaly(deg)": 189.83123313433123,
        "RAAN(deg)": 9.951235612717557,
        "Satellite Name": "Starlink Shell 1 52",
        "Satellite Number": 52,
        "Semi-Major Axis(m)": 6931778.249405717,
        "Time(s)": 940
    }
]